{
  "module": [
    {
      "id": "R52299",
      "name": "Abra",
      "nameLocal": "Abra",
      "parentId": "R443174",
      "displayName": "Abra",
      "isSupportDgCod": null,
      "scope": "L2"
    },
    {
      "id": "R1507282",
      "name": "Agusan\u0020Del\u0020Norte",
      "nameLocal": "Agusan\u0020Del\u0020Norte",
      "parentId": "R443174",
      "displayName": "Agusan\u0020Del\u0020Norte",
      "isSupportDgCod": null,
      "scope": "L2"
    },
    {
      "id": "R52297",
      "name": "Agusan\u0020Del\u0020Sur",
      "nameLocal": "Agusan\u0020Del\u0020Sur",
      "parentId": "R443174",
      "displayName": "Agusan\u0020Del\u0020Sur",
      "isSupportDgCod": null,
      "scope": "L2"
    },
    {
      "id": "R1506745",
      "name": "Aklan",
      "nameLocal": "Aklan",
      "parentId": "R443174",
      "displayName": "Aklan",
      "isSupportDgCod": null,
      "scope": "L2"
    },
    {
      "id": "R1504625",
      "name": "Albay",
      "nameLocal": "Albay",
      "parentId": "R443174",
      "displayName": "Albay",
      "isSupportDgCod": null,
      "scope": "L2"
    },
    {
      "id": "R1506746",
      "name": "Antique",
      "nameLocal": "Antique",
      "parentId": "R443174",
      "displayName": "Antique",
      "isSupportDgCod": null,
      "scope": "L2"
    },
    {
      "id": "R52296",
      "name": "Apayao",
      "nameLocal": "Apayao",
      "parentId": "R443174",
      "displayName": "Apayao",
      "isSupportDgCod": null,
      "scope": "L2"
    },
    {
      "id": "R1504662",
      "name": "Aurora",
      "nameLocal": "Aurora",
      "parentId": "R443174",
      "displayName": "Aurora",
      "isSupportDgCod": null,
      "scope": "L2"
    },
    {
      "id": "R1513281",
      "name": "Basilan",
      "nameLocal": "Basilan",
      "parentId": "R443174",
      "displayName": "Basilan",
      "isSupportDgCod": null,
      "scope": "L2"
    },
    {
      "id": "R1504680",
      "name": "Bataan",
      "nameLocal": "Bataan",
      "parentId": "R443174",
      "displayName": "Bataan",
      "isSupportDgCod": null,
      "scope": "L2"
    },
    {
      "id": "R1504427",
      "name": "Batangas",
      "nameLocal": "Batangas",
      "parentId": "R443174",
      "displayName": "Batangas",
      "isSupportDgCod": null,
      "scope": "L2"
    },
    {
      "id": "R52304",
      "name": "Benguet",
      "nameLocal": "Benguet",
      "parentId": "R443174",
      "displayName": "Benguet",
      "isSupportDgCod": null,
      "scope": "L2"
    },
    {
      "id": "R1506424",
      "name": "Biliran",
      "nameLocal": "Biliran",
      "parentId": "R443174",
      "displayName": "Biliran",
      "isSupportDgCod": null,
      "scope": "L2"
    },
    {
      "id": "R1550487",
      "name": "Bohol",
      "nameLocal": "Bohol",
      "parentId": "R443174",
      "displayName": "Bohol",
      "isSupportDgCod": null,
      "scope": "L2"
    },
    {
      "id": "R48393",
      "name": "Bukidnon",
      "nameLocal": "Bukidnon",
      "parentId": "R443174",
      "displayName": "Bukidnon",
      "isSupportDgCod": null,
      "scope": "L2"
    },
    {
      "id": "R1504656",
      "name": "Bulacan",
      "nameLocal": "Bulacan",
      "parentId": "R443174",
      "displayName": "Bulacan",
      "isSupportDgCod": null,
      "scope": "L2"
    },
    {
      "id": "R1504756",
      "name": "Cagayan",
      "nameLocal": "Cagayan",
      "parentId": "R443174",
      "displayName": "Cagayan",
      "isSupportDgCod": null,
      "scope": "L2"
    },
    {
      "id": "R1504550",
      "name": "Camarines\u0020Norte",
      "nameLocal": "Camarines\u0020Norte",
      "parentId": "R443174",
      "displayName": "Camarines\u0020Norte",
      "isSupportDgCod": null,
      "scope": "L2"
    },
    {
      "id": "R1504551",
      "name": "Camarines\u0020Sur",
      "nameLocal": "Camarines\u0020Sur",
      "parentId": "R443174",
      "displayName": "Camarines\u0020Sur",
      "isSupportDgCod": null,
      "scope": "L2"
    },
    {
      "id": "R1552824",
      "name": "Camiguin",
      "nameLocal": "Camiguin",
      "parentId": "R443174",
      "displayName": "Camiguin",
      "isSupportDgCod": null,
      "scope": "L2"
    },
    {
      "id": "R1550483",
      "name": "Capiz",
      "nameLocal": "Capiz",
      "parentId": "R443174",
      "displayName": "Capiz",
      "isSupportDgCod": null,
      "scope": "L2"
    },
    {
      "id": "R1506351",
      "name": "Catanduanes",
      "nameLocal": "Catanduanes",
      "parentId": "R443174",
      "displayName": "Catanduanes",
      "isSupportDgCod": null,
      "scope": "L2"
    },
    {
      "id": "R1503544",
      "name": "Cavite",
      "nameLocal": "Cavite",
      "parentId": "R443174",
      "displayName": "Cavite",
      "isSupportDgCod": null,
      "scope": "L2"
    },
    {
      "id": "R1506936",
      "name": "Cebu",
      "nameLocal": "Cebu",
      "parentId": "R443174",
      "displayName": "Cebu",
      "isSupportDgCod": null,
      "scope": "L2"
    },
    {
      "id": "R80200191",
      "name": "Cotabato",
      "nameLocal": "Cotabato",
      "parentId": "R443174",
      "displayName": "Cotabato",
      "isSupportDgCod": null,
      "scope": "L2"
    },
    {
      "id": "R1507313",
      "name": "Davao\u0020Del\u0020Norte",
      "nameLocal": "Davao\u0020Del\u0020Norte",
      "parentId": "R443174",
      "displayName": "Davao\u0020Del\u0020Norte",
      "isSupportDgCod": null,
      "scope": "L2"
    },
    {
      "id": "R1513050",
      "name": "Davao\u0020Del\u0020Sur",
      "nameLocal": "Davao\u0020Del\u0020Sur",
      "parentId": "R443174",
      "displayName": "Davao\u0020Del\u0020Sur",
      "isSupportDgCod": null,
      "scope": "L2"
    },
    {
      "id": "R1507283",
      "name": "Davao\u0020de\u0020Oro",
      "nameLocal": "Davao\u0020de\u0020Oro",
      "parentId": "R443174",
      "displayName": "Davao\u0020de\u0020Oro",
      "isSupportDgCod": null,
      "scope": "L2"
    },
    {
      "id": "R80321138",
      "name": "Davao\u0020Occidental",
      "nameLocal": "Davao\u0020Occidental",
      "parentId": "R443174",
      "displayName": "Davao\u0020Occidental",
      "isSupportDgCod": null,
      "scope": "L2"
    },
    {
      "id": "R1507095",
      "name": "Davao\u0020Oriental",
      "nameLocal": "Davao\u0020Oriental",
      "parentId": "R443174",
      "displayName": "Davao\u0020Oriental",
      "isSupportDgCod": null,
      "scope": "L2"
    },
    {
      "id": "R1507007",
      "name": "Dinagat\u0020Islands",
      "nameLocal": "Dinagat\u0020Islands",
      "parentId": "R443174",
      "displayName": "Dinagat\u0020Islands",
      "isSupportDgCod": null,
      "scope": "L2"
    },
    {
      "id": "R1506373",
      "name": "Eastern\u0020Samar",
      "nameLocal": "Eastern\u0020Samar",
      "parentId": "R443174",
      "displayName": "Eastern\u0020Samar",
      "isSupportDgCod": null,
      "scope": "L2"
    },
    {
      "id": "R1506802",
      "name": "Guimaras",
      "nameLocal": "Guimaras",
      "parentId": "R443174",
      "displayName": "Guimaras",
      "isSupportDgCod": null,
      "scope": "L2"
    },
    {
      "id": "R52303",
      "name": "Ifugao",
      "nameLocal": "Ifugao",
      "parentId": "R443174",
      "displayName": "Ifugao",
      "isSupportDgCod": null,
      "scope": "L2"
    },
    {
      "id": "R1504744",
      "name": "Ilocos\u0020Norte",
      "nameLocal": "Ilocos\u0020Norte",
      "parentId": "R443174",
      "displayName": "Ilocos\u0020Norte",
      "isSupportDgCod": null,
      "scope": "L2"
    },
    {
      "id": "R1504724",
      "name": "Ilocos\u0020Sur",
      "nameLocal": "Ilocos\u0020Sur",
      "parentId": "R443174",
      "displayName": "Ilocos\u0020Sur",
      "isSupportDgCod": null,
      "scope": "L2"
    },
    {
      "id": "R1506774",
      "name": "Iloilo",
      "nameLocal": "Iloilo",
      "parentId": "R443174",
      "displayName": "Iloilo",
      "isSupportDgCod": null,
      "scope": "L2"
    },
    {
      "id": "R1504761",
      "name": "Isabela",
      "nameLocal": "Isabela",
      "parentId": "R443174",
      "displayName": "Isabela",
      "isSupportDgCod": null,
      "scope": "L2"
    },
    {
      "id": "R52300",
      "name": "Kalinga",
      "nameLocal": "Kalinga",
      "parentId": "R443174",
      "displayName": "Kalinga",
      "isSupportDgCod": null,
      "scope": "L2"
    },
    {
      "id": "R1503483",
      "name": "Laguna",
      "nameLocal": "Laguna",
      "parentId": "R443174",
      "displayName": "Laguna",
      "isSupportDgCod": null,
      "scope": "L2"
    },
    {
      "id": "R1513179",
      "name": "Lanao\u0020Del\u0020Norte",
      "nameLocal": "Lanao\u0020Del\u0020Norte",
      "parentId": "R443174",
      "displayName": "Lanao\u0020Del\u0020Norte",
      "isSupportDgCod": null,
      "scope": "L2"
    },
    {
      "id": "R1504722",
      "name": "La\u0020Union",
      "nameLocal": "La\u0020Union",
      "parentId": "R443174",
      "displayName": "La\u0020Union",
      "isSupportDgCod": null,
      "scope": "L2"
    },
    {
      "id": "R80156092",
      "name": "Lazada\u0020Office",
      "nameLocal": "Lazada\u0020Office",
      "parentId": "R443174",
      "displayName": "Lazada\u0020Office",
      "isSupportDgCod": null,
      "scope": "L2"
    },
    {
      "id": "R1506532",
      "name": "Leyte",
      "nameLocal": "Leyte",
      "parentId": "R443174",
      "displayName": "Leyte",
      "isSupportDgCod": null,
      "scope": "L2"
    },
    {
      "id": "R1513165",
      "name": "Maguindanao",
      "nameLocal": "Maguindanao",
      "parentId": "R443174",
      "displayName": "Maguindanao",
      "isSupportDgCod": null,
      "scope": "L2"
    },
    {
      "id": "R1506331",
      "name": "Marinduque",
      "nameLocal": "Marinduque",
      "parentId": "R443174",
      "displayName": "Marinduque",
      "isSupportDgCod": null,
      "scope": "L2"
    },
    {
      "id": "R1506350",
      "name": "Masbate",
      "nameLocal": "Masbate",
      "parentId": "R443174",
      "displayName": "Masbate",
      "isSupportDgCod": null,
      "scope": "L2"
    },
    {
      "id": "R273242",
      "name": "Metro\u0020Manila\u007ECaloocan",
      "nameLocal": "Metro\u0020Manila\u007ECaloocan",
      "parentId": "R443174",
      "displayName": "Metro\u0020Manila\u007ECaloocan",
      "isSupportDgCod": null,
      "scope": "L2"
    },
    {
      "id": "R2095594",
      "name": "Metro\u0020Manila\u007ELas\u0020Pinas",
      "nameLocal": "Metro\u0020Manila\u007ELas\u0020Pinas",
      "parentId": "R443174",
      "displayName": "Metro\u0020Manila\u007ELas\u0020Pinas",
      "isSupportDgCod": null,
      "scope": "L2"
    },
    {
      "id": "R103716",
      "name": "Metro\u0020Manila\u007EMakati",
      "nameLocal": "Metro\u0020Manila\u007EMakati",
      "parentId": "R443174",
      "displayName": "Metro\u0020Manila\u007EMakati",
      "isSupportDgCod": null,
      "scope": "L2"
    },
    {
      "id": "R403176",
      "name": "Metro\u0020Manila\u007EMalabon",
      "nameLocal": "Metro\u0020Manila\u007EMalabon",
      "parentId": "R443174",
      "displayName": "Metro\u0020Manila\u007EMalabon",
      "isSupportDgCod": null,
      "scope": "L2"
    },
    {
      "id": "R2284209",
      "name": "Metro\u0020Manila\u007EMandaluyong",
      "nameLocal": "Metro\u0020Manila\u007EMandaluyong",
      "parentId": "R443174",
      "displayName": "Metro\u0020Manila\u007EMandaluyong",
      "isSupportDgCod": null,
      "scope": "L2"
    },
    {
      "id": "R103703",
      "name": "Metro\u0020Manila\u007EManila",
      "nameLocal": "Metro\u0020Manila\u007EManila",
      "parentId": "R443174",
      "displayName": "Metro\u0020Manila\u007EManila",
      "isSupportDgCod": null,
      "scope": "L2"
    },
    {
      "id": "R146949",
      "name": "Metro\u0020Manila\u007EMarikina",
      "nameLocal": "Metro\u0020Manila\u007EMarikina",
      "parentId": "R443174",
      "displayName": "Metro\u0020Manila\u007EMarikina",
      "isSupportDgCod": null,
      "scope": "L2"
    },
    {
      "id": "R1346849",
      "name": "Metro\u0020Manila\u007EMuntinlupa",
      "nameLocal": "Metro\u0020Manila\u007EMuntinlupa",
      "parentId": "R443174",
      "displayName": "Metro\u0020Manila\u007EMuntinlupa",
      "isSupportDgCod": null,
      "scope": "L2"
    },
    {
      "id": "R379812",
      "name": "Metro\u0020Manila\u007ENavotas",
      "nameLocal": "Metro\u0020Manila\u007ENavotas",
      "parentId": "R443174",
      "displayName": "Metro\u0020Manila\u007ENavotas",
      "isSupportDgCod": null,
      "scope": "L2"
    },
    {
      "id": "R122940",
      "name": "Metro\u0020Manila\u007EParanaque",
      "nameLocal": "Metro\u0020Manila\u007EParanaque",
      "parentId": "R443174",
      "displayName": "Metro\u0020Manila\u007EParanaque",
      "isSupportDgCod": null,
      "scope": "L2"
    },
    {
      "id": "R113858",
      "name": "Metro\u0020Manila\u007EPasay",
      "nameLocal": "Metro\u0020Manila\u007EPasay",
      "parentId": "R443174",
      "displayName": "Metro\u0020Manila\u007EPasay",
      "isSupportDgCod": null,
      "scope": "L2"
    },
    {
      "id": "R131703",
      "name": "Metro\u0020Manila\u007EPasig",
      "nameLocal": "Metro\u0020Manila\u007EPasig",
      "parentId": "R443174",
      "displayName": "Metro\u0020Manila\u007EPasig",
      "isSupportDgCod": null,
      "scope": "L2"
    },
    {
      "id": "R131653",
      "name": "Metro\u0020Manila\u007EPateros",
      "nameLocal": "Metro\u0020Manila\u007EPateros",
      "parentId": "R443174",
      "displayName": "Metro\u0020Manila\u007EPateros",
      "isSupportDgCod": null,
      "scope": "L2"
    },
    {
      "id": "R106569",
      "name": "Metro\u0020Manila\u007EQuezon\u0020City",
      "nameLocal": "Metro\u0020Manila\u007EQuezon\u0020City",
      "parentId": "R443174",
      "displayName": "Metro\u0020Manila\u007EQuezon\u0020City",
      "isSupportDgCod": null,
      "scope": "L2"
    },
    {
      "id": "R2284210",
      "name": "Metro\u0020Manila\u007ESan\u0020Juan",
      "nameLocal": "Metro\u0020Manila\u007ESan\u0020Juan",
      "parentId": "R443174",
      "displayName": "Metro\u0020Manila\u007ESan\u0020Juan",
      "isSupportDgCod": null,
      "scope": "L2"
    },
    {
      "id": "R184776",
      "name": "Metro\u0020Manila\u007ETaguig",
      "nameLocal": "Metro\u0020Manila\u007ETaguig",
      "parentId": "R443174",
      "displayName": "Metro\u0020Manila\u007ETaguig",
      "isSupportDgCod": null,
      "scope": "L2"
    },
    {
      "id": "R307470",
      "name": "Metro\u0020Manila\u007EValenzuela",
      "nameLocal": "Metro\u0020Manila\u007EValenzuela",
      "parentId": "R443174",
      "displayName": "Metro\u0020Manila\u007EValenzuela",
      "isSupportDgCod": null,
      "scope": "L2"
    },
    {
      "id": "R1513208",
      "name": "Misamis\u0020Occidental",
      "nameLocal": "Misamis\u0020Occidental",
      "parentId": "R443174",
      "displayName": "Misamis\u0020Occidental",
      "isSupportDgCod": null,
      "scope": "L2"
    },
    {
      "id": "R1513190",
      "name": "Misamis\u0020Oriental",
      "nameLocal": "Misamis\u0020Oriental",
      "parentId": "R443174",
      "displayName": "Misamis\u0020Oriental",
      "isSupportDgCod": null,
      "scope": "L2"
    },
    {
      "id": "R52301",
      "name": "Mountain\u0020Province",
      "nameLocal": "Mountain\u0020Province",
      "parentId": "R443174",
      "displayName": "Mountain\u0020Province",
      "isSupportDgCod": null,
      "scope": "L2"
    },
    {
      "id": "R1506913",
      "name": "Negros\u0020Occidental",
      "nameLocal": "Negros\u0020Occidental",
      "parentId": "R443174",
      "displayName": "Negros\u0020Occidental",
      "isSupportDgCod": null,
      "scope": "L2"
    },
    {
      "id": "R1506914",
      "name": "Negros\u0020Oriental",
      "nameLocal": "Negros\u0020Oriental",
      "parentId": "R443174",
      "displayName": "Negros\u0020Oriental",
      "isSupportDgCod": null,
      "scope": "L2"
    },
    {
      "id": "R1513151",
      "name": "North\u0020Cotabato",
      "nameLocal": "North\u0020Cotabato",
      "parentId": "R443174",
      "displayName": "North\u0020Cotabato",
      "isSupportDgCod": null,
      "scope": "L2"
    },
    {
      "id": "R1506364",
      "name": "Northern\u0020Samar",
      "nameLocal": "Northern\u0020Samar",
      "parentId": "R443174",
      "displayName": "Northern\u0020Samar",
      "isSupportDgCod": null,
      "scope": "L2"
    },
    {
      "id": "R52306",
      "name": "Nueva\u0020Ecija",
      "nameLocal": "Nueva\u0020Ecija",
      "parentId": "R443174",
      "displayName": "Nueva\u0020Ecija",
      "isSupportDgCod": null,
      "scope": "L2"
    },
    {
      "id": "R52305",
      "name": "Nueva\u0020Vizcaya",
      "nameLocal": "Nueva\u0020Vizcaya",
      "parentId": "R443174",
      "displayName": "Nueva\u0020Vizcaya",
      "isSupportDgCod": null,
      "scope": "L2"
    },
    {
      "id": "R1506320",
      "name": "Occidental\u0020Mindoro",
      "nameLocal": "Occidental\u0020Mindoro",
      "parentId": "R443174",
      "displayName": "Occidental\u0020Mindoro",
      "isSupportDgCod": null,
      "scope": "L2"
    },
    {
      "id": "R1506328",
      "name": "Oriental\u0020Mindoro",
      "nameLocal": "Oriental\u0020Mindoro",
      "parentId": "R443174",
      "displayName": "Oriental\u0020Mindoro",
      "isSupportDgCod": null,
      "scope": "L2"
    },
    {
      "id": "R1506669",
      "name": "Palawan",
      "nameLocal": "Palawan",
      "parentId": "R443174",
      "displayName": "Palawan",
      "isSupportDgCod": null,
      "scope": "L2"
    },
    {
      "id": "R1504669",
      "name": "Pampanga",
      "nameLocal": "Pampanga",
      "parentId": "R443174",
      "displayName": "Pampanga",
      "isSupportDgCod": null,
      "scope": "L2"
    },
    {
      "id": "R1504701",
      "name": "Pangasinan",
      "nameLocal": "Pangasinan",
      "parentId": "R443174",
      "displayName": "Pangasinan",
      "isSupportDgCod": null,
      "scope": "L2"
    },
    {
      "id": "R1504500",
      "name": "Quezon",
      "nameLocal": "Quezon",
      "parentId": "R443174",
      "displayName": "Quezon",
      "isSupportDgCod": null,
      "scope": "L2"
    },
    {
      "id": "R52302",
      "name": "Quirino",
      "nameLocal": "Quirino",
      "parentId": "R443174",
      "displayName": "Quirino",
      "isSupportDgCod": null,
      "scope": "L2"
    },
    {
      "id": "R1504641",
      "name": "Rizal",
      "nameLocal": "Rizal",
      "parentId": "R443174",
      "displayName": "Rizal",
      "isSupportDgCod": null,
      "scope": "L2"
    },
    {
      "id": "R1506343",
      "name": "Romblon",
      "nameLocal": "Romblon",
      "parentId": "R443174",
      "displayName": "Romblon",
      "isSupportDgCod": null,
      "scope": "L2"
    },
    {
      "id": "R1513098",
      "name": "Sarangani",
      "nameLocal": "Sarangani",
      "parentId": "R443174",
      "displayName": "Sarangani",
      "isSupportDgCod": null,
      "scope": "L2"
    },
    {
      "id": "R3604058",
      "name": "Siquijor",
      "nameLocal": "Siquijor",
      "parentId": "R443174",
      "displayName": "Siquijor",
      "isSupportDgCod": null,
      "scope": "L2"
    },
    {
      "id": "R1504631",
      "name": "Sorsogon",
      "nameLocal": "Sorsogon",
      "parentId": "R443174",
      "displayName": "Sorsogon",
      "isSupportDgCod": null,
      "scope": "L2"
    },
    {
      "id": "R1513131",
      "name": "South\u0020Cotabato",
      "nameLocal": "South\u0020Cotabato",
      "parentId": "R443174",
      "displayName": "South\u0020Cotabato",
      "isSupportDgCod": null,
      "scope": "L2"
    },
    {
      "id": "R1506605",
      "name": "Southern\u0020Leyte",
      "nameLocal": "Southern\u0020Leyte",
      "parentId": "R443174",
      "displayName": "Southern\u0020Leyte",
      "isSupportDgCod": null,
      "scope": "L2"
    },
    {
      "id": "R1513160",
      "name": "Sultan\u0020Kudarat",
      "nameLocal": "Sultan\u0020Kudarat",
      "parentId": "R443174",
      "displayName": "Sultan\u0020Kudarat",
      "isSupportDgCod": null,
      "scope": "L2"
    },
    {
      "id": "R1507031",
      "name": "Surigao\u0020Del\u0020Norte",
      "nameLocal": "Surigao\u0020Del\u0020Norte",
      "parentId": "R443174",
      "displayName": "Surigao\u0020Del\u0020Norte",
      "isSupportDgCod": null,
      "scope": "L2"
    },
    {
      "id": "R1507067",
      "name": "Surigao\u0020Del\u0020Sur",
      "nameLocal": "Surigao\u0020Del\u0020Sur",
      "parentId": "R443174",
      "displayName": "Surigao\u0020Del\u0020Sur",
      "isSupportDgCod": null,
      "scope": "L2"
    },
    {
      "id": "R52307",
      "name": "Tarlac",
      "nameLocal": "Tarlac",
      "parentId": "R443174",
      "displayName": "Tarlac",
      "isSupportDgCod": null,
      "scope": "L2"
    },
    {
      "id": "R1513298",
      "name": "Tawi\u002DTawi",
      "nameLocal": "Tawi\u002DTawi",
      "parentId": "R443174",
      "displayName": "Tawi\u002DTawi",
      "isSupportDgCod": null,
      "scope": "L2"
    },
    {
      "id": "R1506416",
      "name": "Western\u0020Samar",
      "nameLocal": "Western\u0020Samar",
      "parentId": "R443174",
      "displayName": "Western\u0020Samar",
      "isSupportDgCod": null,
      "scope": "L2"
    },
    {
      "id": "R1504691",
      "name": "Zambales",
      "nameLocal": "Zambales",
      "parentId": "R443174",
      "displayName": "Zambales",
      "isSupportDgCod": null,
      "scope": "L2"
    },
    {
      "id": "R1513211",
      "name": "Zamboanga\u0020Del\u0020Norte",
      "nameLocal": "Zamboanga\u0020Del\u0020Norte",
      "parentId": "R443174",
      "displayName": "Zamboanga\u0020Del\u0020Norte",
      "isSupportDgCod": null,
      "scope": "L2"
    },
    {
      "id": "R1513233",
      "name": "Zamboanga\u0020Del\u0020Sur",
      "nameLocal": "Zamboanga\u0020Del\u0020Sur",
      "parentId": "R443174",
      "displayName": "Zamboanga\u0020Del\u0020Sur",
      "isSupportDgCod": null,
      "scope": "L2"
    },
    {
      "id": "R1513227",
      "name": "Zamboanga\u0020Sibugay",
      "nameLocal": "Zamboanga\u0020Sibugay",
      "parentId": "R443174",
      "displayName": "Zamboanga\u0020Sibugay",
      "isSupportDgCod": null,
      "scope": "L2"
    }
  ],
  "success": true,
  "errorCode": null,
  "retry": false,
  "repeated": false,
  "notSuccess": false
}
